CTC2_L_00131001-01
1 21450U 23168FA  26037.47791667  .00000000  00000+0  00000-0 0  9996
2 21450  70.0000   0.0000 0000000   0.0000   0.0000 13.03091717    14
CTC2_L_00131001-02
1 21451U 26395TP  26037.47791667  .00000000  00000+0  00000-0 0  9992
2 21451  70.0000   0.0000 0000000   0.0000  90.0000 13.03091717    14
CTC2_L_00131001-03
1 21452U 26607OK  26037.47791667  .00000000  00000+0  00000-0 0  9999
2 21452  70.0000   0.0000 0000000   0.0000 180.0000 13.03091717    15
CTC2_L_00131001-04
1 21453U 25973MO  26037.47791667  .00000000  00000+0  00000-0 0  9995
2 21453  70.0000   0.0000 0000000   0.0000 270.0000 13.03091717    16
CTC2_L_00131002-01
1 21454U 25109VA  26037.47791667  .00000000  00000+0  00000-0 0  9997
2 21454  70.0000  12.0000 0000000   0.0000  12.0000 13.03091717    14
CTC2_L_00131002-02
1 21455U 26562MG  26037.47791667  .00000000  00000+0  00000-0 0  9992
2 21455  70.0000  12.0000 0000000   0.0000 102.0000 13.03091717    15
CTC2_L_00131002-03
1 21456U 23126CS  26037.47791667  .00000000  00000+0  00000-0 0  9996
2 21456  70.0000  12.0000 0000000   0.0000 192.0000 13.03091717    15
CTC2_L_00131002-04
1 21457U 23421KC  26037.47791667  .00000000  00000+0  00000-0 0  9995
2 21457  70.0000  12.0000 0000000   0.0000 282.0000 13.03091717    16
CTC2_L_00131003-01
1 21458U 26796OC  26037.47791667  .00000000  00000+0  00000-0 0  9994
2 21458  70.0000  24.0000 0000000   0.0000  24.0000 13.03091717    14
CTC2_L_00131003-02
1 21459U 26888MN  26037.47791667  .00000000  00000+0  00000-0 0  9997
2 21459  70.0000  24.0000 0000000   0.0000 114.0000 13.03091717    15
CTC2_L_00131003-03
1 21460U 23164US  26037.47791667  .00000000  00000+0  00000-0 0  9993
2 21460  70.0000  24.0000 0000000   0.0000 204.0000 13.03091717    17
CTC2_L_00131003-04
1 21461U 24115UO  26037.47791667  .00000000  00000+0  00000-0 0  9991
2 21461  70.0000  24.0000 0000000   0.0000 294.0000 13.03091717    17
CTC2_L_00131004-01
1 21462U 25820FG  26037.47791667  .00000000  00000+0  00000-0 0  9996
2 21462  70.0000  36.0000 0000000   0.0000  36.0000 13.03091717    15
CTC2_L_00131004-02
1 21463U 26621QP  26037.47791667  .00000000  00000+0  00000-0 0  9997
2 21463  70.0000  36.0000 0000000   0.0000 126.0000 13.03091717    16
CTC2_L_00131004-03
1 21464U 22470JG  26037.47791667  .00000000  00000+0  00000-0 0  9996
2 21464  70.0000  36.0000 0000000   0.0000 216.0000 13.03091717    17
CTC2_L_00131004-04
1 21465U 22381BV  26037.47791667  .00000000  00000+0  00000-0 0  9998
2 21465  70.0000  36.0000 0000000   0.0000 306.0000 13.03091717    18
CTC2_L_00131005-01
1 21466U 22053GD  26037.47791667  .00000000  00000+0  00000-0 0  9995
2 21466  70.0000  48.0000 0000000   0.0000  48.0000 13.03091717    15
CTC2_L_00131005-02
1 21467U 22543KG  26037.47791667  .00000000  00000+0  00000-0 0  9990
2 21467  70.0000  48.0000 0000000   0.0000 138.0000 13.03091717    16
CTC2_L_00131005-03
1 21468U 24267PO  26037.47791667  .00000000  00000+0  00000-0 0  9996
2 21468  70.0000  48.0000 0000000   0.0000 228.0000 13.03091717    17
CTC2_L_00131005-04
1 21469U 22662GC  26037.47791667  .00000000  00000+0  00000-0 0  9994
2 21469  70.0000  48.0000 0000000   0.0000 318.0000 13.03091717    18
CTC2_L_00131006-01
1 21470U 22155YS  26037.47791667  .00000000  00000+0  00000-0 0  9993
2 21470  70.0000  60.0000 0000000   0.0000  60.0000 13.03091717    18
CTC2_L_00131006-02
1 21471U 24982DF  26037.47791667  .00000000  00000+0  00000-0 0  9994
2 21471  70.0000  60.0000 0000000   0.0000 150.0000 13.03091717    19
CTC2_L_00131006-03
1 21472U 26031LH  26037.47791667  .00000000  00000+0  00000-0 0  9992
2 21472  70.0000  60.0000 0000000   0.0000 240.0000 13.03091717    10
CTC2_L_00131006-04
1 21473U 25931GF  26037.47791667  .00000000  00000+0  00000-0 0  9991
2 21473  70.0000  60.0000 0000000   0.0000 330.0000 13.03091717    11
CTC2_L_00131007-01
1 21474U 25338HB  26037.47791667  .00000000  00000+0  00000-0 0  9993
2 21474  70.0000  72.0000 0000000   0.0000  72.0000 13.03091717    18
CTC2_L_00131007-02
1 21475U 22306GR  26037.47791667  .00000000  00000+0  00000-0 0  9996
2 21475  70.0000  72.0000 0000000   0.0000 162.0000 13.03091717    19
CTC2_L_00131007-03
1 21476U 24840LG  26037.47791667  .00000000  00000+0  00000-0 0  9992
2 21476  70.0000  72.0000 0000000   0.0000 252.0000 13.03091717    10
CTC2_L_00131007-04
1 21477U 23712PH  26037.47791667  .00000000  00000+0  00000-0 0  9990
2 21477  70.0000  72.0000 0000000   0.0000 342.0000 13.03091717    11
CTC2_L_00131008-01
1 21478U 26777IZ  26037.47791667  .00000000  00000+0  00000-0 0  9995
2 21478  70.0000  84.0000 0000000   0.0000  84.0000 13.03091717    18
CTC2_L_00131008-02
1 21479U 26278DP  26037.47791667  .00000000  00000+0  00000-0 0  9992
2 21479  70.0000  84.0000 0000000   0.0000 174.0000 13.03091717    19
CTC2_L_00131008-03
1 21480U 26284NO  26037.47791667  .00000000  00000+0  00000-0 0  9991
2 21480  70.0000  84.0000 0000000   0.0000 264.0000 13.03091717    11
CTC2_L_00131008-04
1 21481U 25656LP  26037.47791667  .00000000  00000+0  00000-0 0  9994
2 21481  70.0000  84.0000 0000000   0.0000 354.0000 13.03091717    12
CTC2_L_00131009-01
1 21482U 22103KD  26037.47791667  .00000000  00000+0  00000-0 0  9999
2 21482  70.0000  96.0000 0000000   0.0000  96.0000 13.03091717    19
CTC2_L_00131009-02
1 21483U 25304WH  26037.47791667  .00000000  00000+0  00000-0 0  9996
2 21483  70.0000  96.0000 0000000   0.0000 186.0000 13.03091717    10
CTC2_L_00131009-03
1 21484U 22886YM  26037.47791667  .00000000  00000+0  00000-0 0  9999
2 21484  70.0000  96.0000 0000000   0.0000 276.0000 13.03091717    11
CTC2_L_00131009-04
1 21485U 22082BQ  26037.47791667  .00000000  00000+0  00000-0 0  9998
2 21485  70.0000  96.0000 0000000   0.0000   6.0000 13.03091717    13
CTC2_L_00131010-01
1 21486U 26751NI  26037.47791667  .00000000  00000+0  00000-0 0  9996
2 21486  70.0000 108.0000 0000000   0.0000 108.0000 13.03091717    11
CTC2_L_00131010-02
1 21487U 25093UU  26037.47791667  .00000000  00000+0  00000-0 0  9995
2 21487  70.0000 108.0000 0000000   0.0000 198.0000 13.03091717    11
CTC2_L_00131010-03
1 21488U 25526OL  26037.47791667  .00000000  00000+0  00000-0 0  9997
2 21488  70.0000 108.0000 0000000   0.0000 288.0000 13.03091717    12
CTC2_L_00131010-04
1 21489U 23041NO  26037.47791667  .00000000  00000+0  00000-0 0  9998
2 21489  70.0000 108.0000 0000000   0.0000  18.0000 13.03091717    14
CTC2_L_00131011-01
1 21490U 24810EB  26037.47791667  .00000000  00000+0  00000-0 0  9995
2 21490  70.0000 120.0000 0000000   0.0000 120.0000 13.03091717    14
CTC2_L_00131011-02
1 21491U 26172AL  26037.47791667  .00000000  00000+0  00000-0 0  9999
2 21491  70.0000 120.0000 0000000   0.0000 210.0000 13.03091717    15
CTC2_L_00131011-03
1 21492U 22807NY  26037.47791667  .00000000  00000+0  00000-0 0  9991
2 21492  70.0000 120.0000 0000000   0.0000 300.0000 13.03091717    16
CTC2_L_00131011-04
1 21493U 22069IF  26037.47791667  .00000000  00000+0  00000-0 0  9992
2 21493  70.0000 120.0000 0000000   0.0000  30.0000 13.03091717    17
CTC2_L_00131012-01
1 21494U 26012OV  26037.47791667  .00000000  00000+0  00000-0 0  9995
2 21494  70.0000 132.0000 0000000   0.0000 132.0000 13.03091717    14
CTC2_L_00131012-02
1 21495U 24182US  26037.47791667  .00000000  00000+0  00000-0 0  9992
2 21495  70.0000 132.0000 0000000   0.0000 222.0000 13.03091717    15
CTC2_L_00131012-03
1 21496U 25240LI  26037.47791667  .00000000  00000+0  00000-0 0  9999
2 21496  70.0000 132.0000 0000000   0.0000 312.0000 13.03091717    16
CTC2_L_00131012-04
1 21497U 22349RW  26037.47791667  .00000000  00000+0  00000-0 0  9997
2 21497  70.0000 132.0000 0000000   0.0000  42.0000 13.03091717    17
CTC2_L_00131013-01
1 21498U 24050HE  26037.47791667  .00000000  00000+0  00000-0 0  9999
2 21498  70.0000 144.0000 0000000   0.0000 144.0000 13.03091717    14
CTC2_L_00131013-02
1 21499U 25689ML  26037.47791667  .00000000  00000+0  00000-0 0  9999
2 21499  70.0000 144.0000 0000000   0.0000 234.0000 13.03091717    15
CTC2_L_00131013-03
1 21500U 25237KC  26037.47791667  .00000000  00000+0  00000-0 0  9991
2 21500  70.0000 144.0000 0000000   0.0000 324.0000 13.03091717    18
CTC2_L_00131013-04
1 21501U 24625II  26037.47791667  .00000000  00000+0  00000-0 0  9992
2 21501  70.0000 144.0000 0000000   0.0000  54.0000 13.03091717    19
CTC2_L_00131014-01
1 21502U 23560NJ  26037.47791667  .00000000  00000+0  00000-0 0  9990
2 21502  70.0000 156.0000 0000000   0.0000 156.0000 13.03091717    16
CTC2_L_00131014-02
1 21503U 22695XT  26037.47791667  .00000000  00000+0  00000-0 0  9999
2 21503  70.0000 156.0000 0000000   0.0000 246.0000 13.03091717    17
CTC2_L_00131014-03
1 21504U 24147WS  26037.47791667  .00000000  00000+0  00000-0 0  9994
2 21504  70.0000 156.0000 0000000   0.0000 336.0000 13.03091717    18
CTC2_L_00131014-04
1 21505U 22138RW  26037.47791667  .00000000  00000+0  00000-0 0  9993
2 21505  70.0000 156.0000 0000000   0.0000  66.0000 13.03091717    19
CTC2_L_00131015-01
1 21506U 26476NQ  26037.47791667  .00000000  00000+0  00000-0 0  9993
2 21506  70.0000 168.0000 0000000   0.0000 168.0000 13.03091717    16
CTC2_L_00131015-02
1 21507U 22490QK  26037.47791667  .00000000  00000+0  00000-0 0  9996
2 21507  70.0000 168.0000 0000000   0.0000 258.0000 13.03091717    17
CTC2_L_00131015-03
1 21508U 23611JM  26037.47791667  .00000000  00000+0  00000-0 0  9993
2 21508  70.0000 168.0000 0000000   0.0000 348.0000 13.03091717    18
CTC2_L_00131015-04
1 21509U 25797ID  26037.47791667  .00000000  00000+0  00000-0 0  9991
2 21509  70.0000 168.0000 0000000   0.0000  78.0000 13.03091717    19
CTC2_L_00131016-01
1 21510U 23675RW  26037.47791667  .00000000  00000+0  00000-0 0  9996
2 21510  70.0000 180.0000 0000000   0.0000 180.0000 13.03091717    19
CTC2_L_00131016-02
1 21511U 22685RK  26037.47791667  .00000000  00000+0  00000-0 0  9997
2 21511  70.0000 180.0000 0000000   0.0000 270.0000 13.03091717    10
